OBJECT_NAME,OBJECT_ID,EPOCH,MEAN_MOTION,ECCENTRICITY,INCLINATION,RA_OF_ASC_NODE,ARG_OF_PERICENTER,MEAN_ANOMALY,EPHEMERIS_TYPE,CLASSIFICATION_TYPE,NORAD_CAT_ID,ELEMENT_SET_NO,REV_AT_EPOCH,BSTAR,MEAN_MOTION_DOT,MEAN_MOTION_DDOT
LEMUR-2-ROUNDTRIPPER,2025-009DG,2026-07-21T11:43:55.148736,15.04292500,.00043961,97.7239,285.1289,52.1825,307.9798,0,U,62711,999,8278,.4902445E-3,.6768E-4,0
LEMUR-2-MYNAMEISJEFF,2025-009DH,2026-07-21T11:41:47.654304,15.04285045,.00043418,97.7286,285.5292,84.9538,275.2183,0,U,62712,999,8278,.51071588E-3,.7052E-4,0
LEMUR-2-LEIA-PHILIP,2025-052AN,2026-07-21T10:02:06.111456,14.97395804,.00050604,97.6787,93.7874,106.7345,253.4433,0,U,63246,999,7379,.51270086E-4,.538E-5,0
LEMUR-2-LIA-MARTIN,2025-052AQ,2026-07-21T06:38:00.729312,14.98052658,.00048453,97.6849,94.1774,75.1946,284.9813,0,U,63248,999,7378,.20205491E-3,.2331E-4,0
LEMUR-2-DELOITTE-1,2025-052BB,2026-07-21T12:36:05.422464,14.97817800,.00024921,97.6886,94.7523,54.5188,305.6266,0,U,63259,999,7383,.26750231E-3,.3086E-4,0
LEMUR-2-EMERSONROSE,2025-052BD,2026-07-21T06:22:55.869888,14.99322882,.00023586,97.6883,95.1243,46.3437,313.7981,0,U,63261,999,7384,.24444912E-3,.2928E-4,0
LEMUR-2-MARACHE-FRAN,2025-052BE,2026-07-21T05:13:39.686880,15.00340069,.00059176,97.6814,95.4490,228.3986,131.6731,0,U,63262,999,7386,.23280345E-3,.2862E-4,0
LEMUR-2-THEFALCONER,2025-052BG,2026-07-21T11:45:06.843456,14.97583797,.00008189,97.6812,94.3007,210.8194,149.2980,0,U,63264,999,7382,.1886938E-3,.2146E-4,0
LEMUR-2-UNTITLED-SC,2025-061A,2026-07-21T08:00:47.581920,15.13672117,.00197508,97.5662,177.4555,142.7296,217.5311,0,U,63351,999,7275,.13780225E-3,.2423E-4,0
LEMUR-2-ESPERANZA,2025-061B,2026-07-21T08:59:50.454528,15.13778548,.00194001,97.5669,177.5980,141.9875,218.2730,0,U,63352,999,7276,.13205124E-3,.2325E-4,0
LEMUR-2-KREMPEL-BRO2,2025-061C,2026-07-21T09:24:39.137760,15.14206402,.00204883,97.5715,178.1919,134.8960,225.3939,0,U,63353,999,7278,.14117533E-3,.2523E-4,0
LEMUR-2-THERMORAPTOR,2025-061D,2026-07-21T08:56:09.936672,15.14289501,.00202313,97.5721,178.2545,133.9523,226.3381,0,U,63354,999,7278,.13846152E-3,.2478E-4,0
LEMUR-2-NEUROSPICY,2025-061E,2026-07-21T08:11:34.164960,15.14408159,.0018014,97.5648,177.8235,136.8430,223.4217,0,U,63355,999,7278,.14285147E-3,.2565E-4,0
LEMUR-2-TILLINFINITY,2025-061F,2026-07-21T08:43:23.702592,15.14992346,.00195307,97.5632,178.1598,125.9459,234.3588,0,U,63356,999,7281,.15802109E-3,.2895E-4,0
LEMUR-2-KREMPEL-BRO1,2025-061G,2026-07-21T08:11:28.880736,15.14799288,.00201405,97.5634,178.0443,127.2999,233.0072,0,U,63357,999,7280,.13989822E-3,.2542E-4,0
LEMUR-2-LANGER2SPACE,2025-061H,2026-07-21T08:59:31.876800,15.14492864,.00179861,97.5638,177.8776,135.1709,225.0980,0,U,63358,999,7279,.15334369E-3,.2765E-4,0
LEMUR-2-BALTO,2025-052BH,2026-07-21T06:26:51.998496,15.00396128,.00050028,97.6918,95.4959,301.3682,58.7052,0,U,63395,999,7387,.26481333E-3,.3268E-4,0
LEMUR-2-KRISH,2025-135AK,2026-07-21T15:30:46.144224,14.96480464,.00011754,97.7759,317.2956,109.6235,250.5113,0,U,64561,999,5907,.34897027E-3,.3905E-4,0
LEMUR-2-HUBBLE-4,2025-135AP,2026-07-21T13:43:57.714528,14.93696631,.00031402,97.7722,316.0824,147.4376,212.7038,0,U,64565,999,5900,.84281726E-4,.835E-5,0
LEMUR-2-SEJONG-2,2025-135BL,2026-07-21T14:21:55.280736,14.96948506,.00043476,97.7710,317.3937,189.1582,170.9561,0,U,64586,999,5909,.37174995E-3,.4215E-4,0
LEMUR-2-HUBBLE-5,2025-135BT,2026-07-21T15:29:52.878624,14.94223746,.00048403,97.7742,316.8310,209.7258,150.3688,0,U,64840,999,5905,.95389866E-4,.965E-5,0
LEMUR-2-KARENDARRELL,2025-135BU,2026-07-21T06:21:17.277984,15.00552546,.00129153,97.7720,318.4328,86.4408,273.8293,0,U,64841,999,5912,.44835704E-3,.5607E-4,0
LEMUR-2-LUCILLE-ROSE,2025-135BV,2026-07-21T13:43:17.080608,15.00541066,.00155128,97.7692,318.7733,170.0627,190.0907,0,U,65403,999,5379,.51710027E-3,.6479E-4,0
LEMUR-2-AFFIE-WAUWIE,2025-248C,2026-07-21T12:19:26.290272,15.28432836,.00093418,45.3908,288.8238,284.4468,75.5385,0,U,66295,999,3984,.72788188E-3,.20299E-3,0
OTTER SDM,2025-276N,2026-07-21T03:41:06.173952,15.20098954,.00047016,97.4195,275.0715,227.0821,133.0021,0,U,66678,999,3557,.20749186E-3,.4414E-4,0
LEMUR-2-STAS-GORBUK,2025-276W,2026-07-21T04:14:13.462944,15.19695406,.00040432,97.4229,275.1450,220.9680,139.1252,0,U,66686,999,3557,.17789899E-3,.373E-4,0
LEMUR-2-TEODOR,2025-276DG,2026-07-21T10:50:36.370176,15.21379403,.00020894,97.4133,275.6955,83.1111,277.0362,0,U,66768,999,3565,.19414168E-3,.4284E-4,0
LEMUR-2-LAILA,2025-276DQ,2026-07-21T11:40:28.698528,15.21607659,.0002822,97.4156,275.8722,85.1668,274.9890,0,U,66776,999,3566,.21282148E-3,.4735E-4,0
LEMUR-2-CELIJO-SB-PK,2025-276DW,2026-07-21T04:29:53.581344,15.00325146,.00066514,97.5181,271.8419,49.7685,310.4120,0,U,66781,999,2772,.34976661E-3,.4331E-4,0
